{
  "type": "FeatureCollection",
  "features": [
    {
      "type": "Feature",
      "properties": {
        "norad_id": 66695,
        "name": "TRANSPORTER-15 AF",
        "group": "last-30-days",
        "lat": -41.37180165829012,
        "lon": 72.95740750160984,
        "alt_km": 518.7095783650057,
        "timestamp": "2025-12-20T16:47:35.023018+00:00",
        "meta_object_name": "TRANSPORTER-15 AF",
        "meta_object_id": "2025-276AF",
        "meta_epoch": "2025-12-20T10:38:58.673760",
        "meta_mean_motion": 15.1821041,
        "meta_eccentricity": 0.0001227,
        "meta_inclination": 97.4411,
        "meta_ra_of_asc_node": 66.0956,
        "meta_arg_of_pericenter": 149.2393,
        "meta_mean_anomaly": 210.8913,
        "meta_ephemeris_type": 0,
        "meta_classification_type": "U",
        "meta_norad_cat_id": 66695,
        "meta_element_set_no": 999,
        "meta_rev_at_epoch": 329,
        "meta_bstar": 0.00037028,
        "meta_mean_motion_dot": 7.509e-05,
        "meta_mean_motion_ddot": 0,
        "tle_line1": "1 66695U 25276AF  25354.44373465  .00007509  00000+0  37028-3 0  9992",
        "tle_line2": "2 66695  97.4411  66.0956 0001227 149.2393 210.8913 15.18210410  3296"
      },
      "geometry": {
        "type": "Point",
        "coordinates": [
          72.95740750160984,
          -41.37180165829012
        ]
      }
    },
    {
      "type": "Feature",
      "properties": {
        "norad_id": 66696,
        "name": "TRANSPORTER-15 AG",
        "group": "last-30-days",
        "lat": -72.3088296080955,
        "lon": -137.86801262682337,
        "alt_km": 519.6147232593248,
        "timestamp": "2025-12-20T16:47:35.023030+00:00",
        "meta_object_name": "TRANSPORTER-15 AG",
        "meta_object_id": "2025-276AG",
        "meta_epoch": "2025-12-20T10:55:45.429024",
        "meta_mean_motion": 15.17376163,
        "meta_eccentricity": 0.0002404,
        "meta_inclination": 97.4398,
        "meta_ra_of_asc_node": 66.0765,
        "meta_arg_of_pericenter": 282.2602,
        "meta_mean_anomaly": 77.8362,
        "meta_ephemeris_type": 0,
        "meta_classification_type": "U",
        "meta_norad_cat_id": 66696,
        "meta_element_set_no": 999,
        "meta_rev_at_epoch": 329,
        "meta_bstar": 0.00035767,
        "meta_mean_motion_dot": 7.079e-05,
        "meta_mean_motion_ddot": 0,
        "tle_line1": "1 66696U 25276AG  25354.45538691  .00007079  00000+0  35767-3 0  9998",
        "tle_line2": "2 66696  97.4398  66.0765 0002404 282.2602  77.8362 15.17376163  3294"
      },
      "geometry": {
        "type": "Point",
        "coordinates": [
          -137.86801262682337,
          -72.3088296080955
        ]
      }
    },
    {
      "type": "Feature",
      "properties": {
        "norad_id": 66697,
        "name": "TRANSPORTER-15 AH",
        "group": "last-30-days",
        "lat": -46.88847609751535,
        "lon": 74.36543585774747,
        "alt_km": 518.9933529350637,
        "timestamp": "2025-12-20T16:47:35.023042+00:00",
        "meta_object_name": "TRANSPORTER-15 AH",
        "meta_object_id": "2025-276AH",
        "meta_epoch": "2025-12-20T10:40:26.260032",
        "meta_mean_motion": 15.18123458,
        "meta_eccentricity": 0.0001016,
        "meta_inclination": 97.4396,
        "meta_ra_of_asc_node": 66.0911,
        "meta_arg_of_pericenter": 157.0013,
        "meta_mean_anomaly": 203.1266,
        "meta_ephemeris_type": 0,
        "meta_classification_type": "U",
        "meta_norad_cat_id": 66697,
        "meta_element_set_no": 999,
        "meta_rev_at_epoch": 329,
        "meta_bstar": 0.00035746,
        "meta_mean_motion_dot": 7.229e-05,
        "meta_mean_motion_ddot": 0,
        "tle_line1": "1 66697U 25276AH  25354.44474838  .00007229  00000+0  35746-3 0  9994",
        "tle_line2": "2 66697  97.4396  66.0911 0001016 157.0013 203.1266 15.18123458  3294"
      },
      "geometry": {
        "type": "Point",
        "coordinates": [
          74.36543585774747,
          -46.88847609751535
        ]
      }
    },
    {
      "type": "Feature",
      "properties": {
        "norad_id": 66698,
        "name": "TRANSPORTER-15 AJ",
        "group": "last-30-days",
        "lat": -68.37494859409027,
        "lon": -132.9317962881638,
        "alt_km": 519.653405624973,
        "timestamp": "2025-12-20T16:47:35.023052+00:00",
        "meta_object_name": "TRANSPORTER-15 AJ",
        "meta_object_id": "2025-276AJ",
        "meta_epoch": "2025-12-20T00:00:02.000160",
        "meta_mean_motion": 15.17274955,
        "meta_eccentricity": 0.00025147,
        "meta_inclination": 97.4405,
        "meta_ra_of_asc_node": 65.629,
        "meta_arg_of_pericenter": 274.0309,
        "meta_mean_anomaly": 116.1356,
        "meta_ephemeris_type": 0,
        "meta_classification_type": "U",
        "meta_norad_cat_id": 66698,
        "meta_element_set_no": 999,
        "meta_rev_at_epoch": 130,
        "meta_bstar": 0.00122204,
        "meta_mean_motion_dot": 0.00024334,
        "meta_mean_motion_ddot": 0,
        "tle_line1": "1 66698U 25276AJ  25354.00002315  .00024334  00000+0  12220-2 0  9991",
        "tle_line2": "2 66698  97.4405  65.6290 0002514 274.0309 116.1356 15.17274955  1304"
      },
      "geometry": {
        "type": "Point",
        "coordinates": [
          -132.9317962881638,
          -68.37494859409027
        ]
      }
    },
    {
      "type": "Feature",
      "properties": {
        "norad_id": 66699,
        "name": "TRANSPORTER-15 AK",
        "group": "last-30-days",
        "lat": -69.21044992382411,
        "lon": -133.8157424611512,
        "alt_km": 519.3638190119382,
        "timestamp": "2025-12-20T16:47:35.023063+00:00",
        "meta_object_name": "TRANSPORTER-15 AK",
        "meta_object_id": "2025-276AK",
        "meta_epoch": "2025-12-20T10:56:38.414688",
        "meta_mean_motion": 15.17343062,
        "meta_eccentricity": 0.000276,
        "meta_inclination": 97.4411,
        "meta_ra_of_asc_node": 66.0811,
        "meta_arg_of_pericenter": 270.7744,
        "meta_mean_anomaly": 89.3174,
        "meta_ephemeris_type": 0,
        "meta_classification_type": "U",
        "meta_norad_cat_id": 66699,
        "meta_element_set_no": 999,
        "meta_rev_at_epoch": 329,
        "meta_bstar": 0.00036637,
        "meta_mean_motion_dot": 7.246e-05,
        "meta_mean_motion_ddot": 0,
        "tle_line1": "1 66699U 25276AK  25354.45600017  .00007246  00000+0  36637-3 0  9996",
        "tle_line2": "2 66699  97.4411  66.0811 0002760 270.7744  89.3174 15.17343062  3290"
      },
      "geometry": {
        "type": "Point",
        "coordinates": [
          -133.8157424611512,
          -69.21044992382411
        ]
      }
    },
    {
      "type": "Feature",
      "properties": {
        "norad_id": 66700,
        "name": "TRANSPORTER-15 AL",
        "group": "last-30-days",
        "lat": -43.928162762914944,
        "lon": 73.58679231134991,
        "alt_km": 518.9443568533952,
        "timestamp": "2025-12-20T16:47:35.023073+00:00",
        "meta_object_name": "TRANSPORTER-15 AL",
        "meta_object_id": "2025-276AL",
        "meta_epoch": "2025-12-20T10:39:39.347424",
        "meta_mean_motion": 15.18175426,
        "meta_eccentricity": 0.0001442,
        "meta_inclination": 97.4431,
        "meta_ra_of_asc_node": 66.1009,
        "meta_arg_of_pericenter": 166.9029,
        "meta_mean_anomaly": 193.2242,
        "meta_ephemeris_type": 0,
        "meta_classification_type": "U",
        "meta_norad_cat_id": 66700,
        "meta_element_set_no": 999,
        "meta_rev_at_epoch": 329,
        "meta_bstar": 0.00036431,
        "meta_mean_motion_dot": 7.38e-05,
        "meta_mean_motion_ddot": 0,
        "tle_line1": "1 66700U 25276AL  25354.44420541  .00007380  00000+0  36431-3 0  9991",
        "tle_line2": "2 66700  97.4431  66.1009 0001442 166.9029 193.2242 15.18175426  3292"
      },
      "geometry": {
        "type": "Point",
        "coordinates": [
          73.58679231134991,
          -43.928162762914944
        ]
      }
    },
    {
      "type": "Feature",
      "properties": {
        "norad_id": 66701,
        "name": "TRANSPORTER-15 AM",
        "group": "last-30-days",
        "lat": -69.10061031946279,
        "lon": -133.69691957753733,
        "alt_km": 519.2763855875919,
        "timestamp": "2025-12-20T16:47:35.023082+00:00",
        "meta_object_name": "TRANSPORTER-15 AM",
        "meta_object_id": "2025-276AM",
        "meta_epoch": "2025-12-20T10:56:40.190208",
        "meta_mean_motion": 15.17337635,
        "meta_eccentricity": 0.0002878,
        "meta_inclination": 97.4433,
        "meta_ra_of_asc_node": 66.0854,
        "meta_arg_of_pericenter": 268.2934,
        "meta_mean_anomaly": 91.797,
        "meta_ephemeris_type": 0,
        "meta_classification_type": "U",
        "meta_norad_cat_id": 66701,
        "meta_element_set_no": 999,
        "meta_rev_at_epoch": 329,
        "meta_bstar": 0.00038004,
        "meta_mean_motion_dot": 7.518e-05,
        "meta_mean_motion_ddot": 0,
        "tle_line1": "1 66701U 25276AM  25354.45602072  .00007518  00000+0  38004-3 0  9995",
        "tle_line2": "2 66701  97.4433  66.0854 0002878 268.2934  91.7970 15.17337635  3298"
      },
      "geometry": {
        "type": "Point",
        "coordinates": [
          -133.69691957753733,
          -69.10061031946279
        ]
      }
    }
  ]
}